NORAD_CAT_ID,OBJECT_NAME,OBJECT_TYPE,EPOCH,MEAN_MOTION,ECCENTRICITY,INCLINATION,RA_OF_ASC_NODE,ARG_OF_PERICENTER,MEAN_ANOMALY,BSTAR,MEAN_MOTION_DOT,MEAN_MOTION_DDOT,TLE_LINE0,TLE_LINE1,TLE_LINE2,SEMIMAJOR_AXIS,PERIOD,APOGEE,PERIGEE,DECAYED
52584.0,STARLINK-3922,PAYLOAD,2023-05-25 21:44:02,15.08851331,8e-05,53.2168,12.6181,91.6808,268.4276,-1.4941e-05,-5.26e-06,0.0,0 STARLINK-3922,1 52584U 22051BA  23145.90557967 -.00000526  00000-0 -14941-4 0  9995,2 52584  53.2168  12.6181 0000800  91.6808 268.4276 15.08851331 57787,6917.846,95.437,540.264,539.157,0.0
52584.0,STARLINK-3922,PAYLOAD,2023-05-26 18:24:03,15.08834875,8.69e-05,53.2165,8.7527,99.0677,261.0413,5.7669e-05,6.3e-06,0.0,0 STARLINK-3922,1 52584U 22051BA  23146.76670863  .00000630  00000-0  57669-4 0  9999,2 52584  53.2165   8.7527 0000869  99.0677 261.0413 15.08834875 57983,6917.896,95.438,540.362,539.16,0.0
52584.0,STARLINK-3922,PAYLOAD,2023-05-26 21:34:49,15.08835652,8.51e-05,53.2166,8.1581,97.0864,263.0225,5.6131e-05,6.06e-06,0.0,0 STARLINK-3922,1 52584U 22051BA  23146.89918831  .00000606  00000-0  56131-4 0  9999,2 52584  53.2166   8.1581 0000851  97.0864 263.0225 15.08835652 57937,6917.894,95.438,540.347,539.17,0.0
52584.0,STARLINK-3922,PAYLOAD,2023-05-27 00:45:36,15.08836596,8.39e-05,53.2173,7.5632,100.0342,260.0745,7.3797e-05,8.87e-06,0.0,0 STARLINK-3922,1 52584U 22051BA  23147.03166815  .00000887  00000-0  73797-4 0  9991,2 52584  53.2173   7.5632 0000839 100.0342 260.0745 15.08836596 58020,6917.891,95.438,540.336,539.175,0.0
52584.0,STARLINK-3922,PAYLOAD,2023-05-27 21:25:36,15.08841743,8.77e-05,53.2172,3.6982,81.5574,278.5517,0.0001065,1.408e-05,0.0,0 STARLINK-3922,1 52584U 22051BA  23147.89278637  .00001408  00000-0  10650-3 0  9999,2 52584  53.2172   3.6982 0000877  81.5574 278.5517 15.08841743 58151,6917.875,95.437,540.347,539.133,0.0
52584.0,STARLINK-3922,PAYLOAD,2023-05-28 21:16:24,15.08831354,9.06e-05,53.2173,359.2383,76.855,283.2543,0.00023506,3.454e-05,0.0,0 STARLINK-3922,1 52584U 22051BA  23148.88639232  .00003454  00000-0  23506-3 0  9998,2 52584  53.2173 359.2383 0000906  76.8550 283.2543 15.08831354 58307,6917.907,95.438,540.399,539.145,0.0
52584.0,STARLINK-3922,PAYLOAD,2023-05-29 00:27:10,15.08844604,8.65e-05,53.2175,358.6424,74.4963,285.6125,0.00013178,1.81e-05,0.0,0 STARLINK-3922,1 52584U 22051BA  23149.01886640  .00001810  00000-0  13178-3 0  9999,2 52584  53.2175 358.6424 0000865  74.4963 285.6125 15.08844604 58320,6917.866,95.437,540.33,539.133,0.0
52584.0,STARLINK-3922,PAYLOAD,2023-05-29 16:21:02,15.0883584,9.21e-05,53.2175,355.6689,89.8406,270.2692,-1.0275e-05,-4.51e-06,0.0,0 STARLINK-3922,1 52584U 22051BA  23149.68127670 -.00000451  00000-0 -10275-4 0  9991,2 52584  53.2175 355.6689 0000921  89.8406 270.2692 15.08835840 58427,6917.893,95.438,540.395,539.121,0.0
52584.0,STARLINK-3922,PAYLOAD,2023-05-29 21:07:11,15.08840685,0.0001046,53.218,354.7759,66.0368,294.0734,1.6178e-05,-3e-07,0.0,0 STARLINK-3922,1 52584U 22051BA  23149.87999328 -.00000030  00000-0  16178-4 0  9999,2 52584  53.2180 354.7759 0001046  66.0368 294.0734 15.08840685 58383,6917.878,95.438,540.467,539.02,0.0
52584.0,STARLINK-3922,PAYLOAD,2023-05-30 16:11:48,15.08842487,9.06e-05,53.2176,351.2076,94.2256,265.8839,6.0016e-05,6.68e-06,0.0,0 STARLINK-3922,1 52584U 22051BA  23150.67487090  .00000668  00000-0  60016-4 0  9993,2 52584  53.2176 351.2076 0000906  94.2256 265.8839 15.08842487 58570,6917.873,95.437,540.365,539.111,0.0
52584.0,STARLINK-3922,PAYLOAD,2023-05-30 20:57:58,15.08845043,0.0001091,53.2184,350.3142,77.6175,282.4939,0.00011142,1.486e-05,0.0,0 STARLINK-3922,1 52584U 22051BA  23150.87358883  .00001486  00000-0  11142-3 0  9996,2 52584  53.2184 350.3142 0001091  77.6175 282.4939 15.08845043 58537,6917.865,95.437,540.485,538.975,0.0
52584.0,STARLINK-3922,PAYLOAD,2023-05-30 22:33:21,15.08847607,0.0001067,53.2182,350.0169,81.8039,278.3074,0.00012485,1.7e-05,0.0,0 STARLINK-3922,1 52584U 22051BA  23150.93982669  .00001700  00000-0  12485-3 0  9998,2 52584  53.2182 350.0169 0001067  81.8039 278.3074 15.08847607 58611,6917.857,95.437,540.46,538.984,0.0
52584.0,STARLINK-3922,PAYLOAD,2023-05-31 17:37:58,15.08843319,9.22e-05,53.2172,346.4495,124.1979,235.91,9.2253e-05,1.181e-05,0.0,0 STARLINK-3922,1 52584U 22051BA  23151.73470790  .00001181  00000-0  92253-4 0  9999,2 52584  53.2172 346.4495 0000922 124.1979 235.9100 15.08843319 58732,6917.87,95.437,540.373,539.097,0.0
52584.0,STARLINK-3922,PAYLOAD,2023-05-31 22:24:07,15.08849801,9.71e-05,53.2174,345.5563,121.9073,238.2014,0.00013904,1.926e-05,0.0,0 STARLINK-3922,1 52584U 22051BA  23151.93342213  .00001926  00000-0  13904-3 0  9991,2 52584  53.2174 345.5563 0000971 121.9073 238.2014 15.08849801 58691,6917.85,95.437,540.387,539.044,0.0
52584.0,STARLINK-3922,PAYLOAD,2023-06-01 06:21:03,15.08842368,9.97e-05,53.2177,344.068,119.7274,240.3817,7.6095e-05,9.24e-06,0.0,0 STARLINK-3922,1 52584U 22051BA  23152.26462782  .00000924  00000-0  76095-4 0  9990,2 52584  53.2177 344.0680 0000997 119.7274 240.3817 15.08842368 58746,6917.873,95.437,540.428,539.048,0.0
52584.0,STARLINK-3922,PAYLOAD,2023-06-02 12:33:23,15.08834701,9.94e-05,53.217,338.4203,129.3059,230.8021,1.0012e-05,-1.28e-06,0.0,0 STARLINK-3922,1 52584U 22051BA  23153.52319444 -.00000128  00000-0  10012-4 0  9990,2 52584  53.2170 338.4203 0000994 129.3059 230.8021 15.08834701 59005,6917.897,95.438,540.449,539.074,0.0
52584.0,STARLINK-3922,PAYLOAD,2023-06-02 18:54:56,15.0883834,9.61e-05,53.2171,337.2323,90.035,270.0752,-4.4144e-05,-9.9e-06,0.0,0 STARLINK-3922,1 52584U 22051BA  23153.78815589 -.00000990  00000-0 -44144-4 0  9990,2 52584  53.2171 337.2323 0000961  90.0350 270.0752 15.08838340 59042,6917.885,95.438,540.415,539.086,0.0
52584.0,STARLINK-3922,PAYLOAD,2023-06-03 12:24:11,15.08834233,9.34e-05,53.2171,333.9615,89.6398,270.4702,8.0716e-05,9.97e-06,0.0,0 STARLINK-3922,1 52584U 22051BA  23154.51679661  .00000997  00000-0  80716-4 0  9991,2 52584  53.2171 333.9615 0000934  89.6398 270.4702 15.08834233 59085,6917.898,95.438,540.409,539.117,0.0
52584.0,STARLINK-3922,PAYLOAD,2023-06-03 18:45:43,15.08840333,8.52e-05,53.2171,332.7727,86.3789,273.7301,9.2472e-05,1.184e-05,0.0,0 STARLINK-3922,1 52584U 22051BA  23154.78175335  .00001184  00000-0  92472-4 0  9990,2 52584  53.2171 332.7727 0000852  86.3789 273.7301 15.08840333 59194,6917.879,95.438,540.334,539.155,0.0
52584.0,STARLINK-3922,PAYLOAD,2023-06-03 23:31:52,15.0884434,8.62e-05,53.2173,331.8803,86.1545,273.9546,0.00011958,1.616e-05,0.0,0 STARLINK-3922,1 52584U 22051BA  23154.98047023  .00001616  00000-0  11958-3 0  9993,2 52584  53.2173 331.8803 0000862  86.1545 273.9546 15.08844340 59229,6917.867,95.437,540.328,539.136,0.0
52584.0,STARLINK-3922,PAYLOAD,2023-06-04 04:18:03,15.08831824,0.0001315,53.2172,330.9861,87.6129,272.5014,3.9582e-05,3.42e-06,0.0,0 STARLINK-3922,1 52584U 22051BA  23155.17920209  .00000342  00000-0  39582-4 0  9990,2 52584  53.2172 330.9861 0001315  87.6129 272.5014 15.08831824 59251,6917.905,95.438,540.68,538.861,0.0
52584.0,STARLINK-3922,PAYLOAD,2023-06-04 13:50:21,15.08830538,6.91e-05,53.2179,329.2026,86.5518,273.5553,0.00012336,1.676e-05,0.0,0 STARLINK-3922,1 52584U 22051BA  23155.57664025  .00001676  00000-0  12336-3 0  9993,2 52584  53.2179 329.2026 0000691  86.5518 273.5553 15.08830538 59247,6917.909,95.438,540.252,539.296,0.0
52584.0,STARLINK-3922,PAYLOAD,2023-06-04 18:36:30,15.08840811,8.71e-05,53.2169,328.3124,79.8651,280.244,0.00018504,2.658e-05,0.0,0 STARLINK-3922,1 52584U 22051BA  23155.77535437  .00002658  00000-0  18504-3 0  9993,2 52584  53.2169 328.3124 0000871  79.8651 280.2440 15.08840811 59344,6917.878,95.438,540.345,539.14,0.0
52584.0,STARLINK-3922,PAYLOAD,2023-06-04 21:47:16,15.08845863,8.49e-05,53.2171,327.7168,80.19,279.9188,0.00019464,2.812e-05,0.0,0 STARLINK-3922,1 52584U 22051BA  23155.90783131  .00002812  00000-0  19464-3 0  9992,2 52584  53.2171 327.7168 0000849  80.1900 279.9188 15.08845863 59295,6917.862,95.437,540.315,539.14,0.0
52584.0,STARLINK-3922,PAYLOAD,2023-06-05 12:05:45,15.08837998,7.36e-05,53.2181,325.0398,81.2522,278.8553,3.7863e-05,3.15e-06,0.0,0 STARLINK-3922,1 52584U 22051BA  23156.50400092  .00000315  00000-0  37863-4 0  9991,2 52584  53.2181 325.0398 0000736  81.2522 278.8553 15.08837998 59383,6917.887,95.438,540.261,539.242,0.0
52584.0,STARLINK-3922,PAYLOAD,2023-06-05 16:51:54,15.08843725,8.38e-05,53.2169,324.1446,88.9052,271.2036,3.7217e-05,3.05e-06,0.0,0 STARLINK-3922,1 52584U 22051BA  23156.70271403  .00000305  00000-0  37217-4 0  9997,2 52584  53.2169 324.1446 0000838  88.9052 271.2036 15.08843725 59410,6917.869,95.437,540.314,539.154,0.0
52584.0,STARLINK-3922,PAYLOAD,2023-06-06 03:59:36,15.08842328,8.4e-05,53.2166,322.0668,87.0791,273.0297,9.3431e-06,-1.39e-06,0.0,0 STARLINK-3922,1 52584U 22051BA  23157.16639473 -.00000139  00000-0  93431-5 0  9990,2 52584  53.2166 322.0668 0000840  87.0791 273.0297 15.08842328 59487,6917.873,95.437,540.319,539.157,0.0
52584.0,STARLINK-3922,PAYLOAD,2023-06-06 15:07:18,15.08836275,9.67e-05,53.2164,319.9859,92.5328,267.5775,-4.1779e-05,-9.53e-06,0.0,0 STARLINK-3922,1 52584U 22051BA  23157.63007918 -.00000953  00000-0 -41779-4 0  9997,2 52584  53.2164 319.9859 0000967  92.5328 267.5775 15.08836275 59628,6917.892,95.438,540.426,539.088,0.0
52584.0,STARLINK-3922,PAYLOAD,2023-06-06 23:04:14,15.08843904,0.0001005,53.2176,318.4982,87.5232,272.5876,0.00023106,3.392e-05,0.0,0 STARLINK-3922,1 52584U 22051BA  23157.96127666  .00003392  00000-0  23106-3 0  9997,2 52584  53.2176 318.4982 0001005  87.5232 272.5876 15.08843904 59674,6917.868,95.437,540.429,539.038,0.0
52584.0,STARLINK-3922,PAYLOAD,2023-06-07 10:11:56,15.08836655,9.33e-05,53.216,316.4171,97.2771,262.8327,8.359e-05,1.043e-05,0.0,0 STARLINK-3922,1 52584U 22051BA  23158.42496056  .00001043  00000-0  83590-4 0  9996,2 52584  53.2160 316.4171 0000933  97.2771 262.8327 15.08836655 59746,6917.891,95.438,540.401,539.11,0.0
